KUIPER-00027            
1 63740U 25088S   26193.25297329  .00005547  00000+0  75629-3 0  9995
2 63740  51.9013 264.7789 0001231 119.3921 240.7165 14.79915816 66061
KUIPER-00028            
1 63741U 25088T   26193.55955615 -.00001145  00000+0 -12128-3 0  9995
2 63741  51.8998 260.8757 0000437  99.5036 260.5976 14.79929980 66559
KUIPER-00029            
1 63742U 25088U   26193.67065647  .00001217  00000+0  18868-3 0  9991
2 63742  51.9009 259.0701 0000235 316.9800  43.1144 14.79925931 66110
KUIPER-00030            
1 63743U 25088V   26193.43938915 -.00000378  00000+0 -20564-4 0  9999
2 63743  51.9016 278.9176 0000479  81.5570 278.5447 14.79928315 66102
KUIPER-00031            
1 63744U 25088W   26193.40427637  .00001429  00000+0  23357-3 0  9999
2 63744  51.9003 263.9158 0001860 196.6331 163.4569 14.76549599 66029
KUIPER-00032            
1 63745U 25088X   26193.85077090  .00012407  00000+0  30640-3 0  9994
2 63745  51.8667 137.2870 0003073 196.3386 163.7504 15.40886935 68826
KUIPER-00033            
1 63746U 25088Y   26193.79461929  .00001962  00000+0  28615-3 0  9999
2 63746  51.9014 292.3687 0000385 105.6978 254.4027 14.79943870 66140
KUIPER-00034            
1 63747U 25088Z   26193.42989045  .00000823  00000+0  13698-3 0  9994
2 63747  51.9008 256.5140 0000642  65.9522 294.1507 14.79930845 66297
KUIPER-00035            
1 63748U 25088AA  26193.53799148 -.00000314  00000+0 -12158-4 0  9998
2 63748  51.9010 281.0121 0000369  92.5504 267.5500 14.79929230 66018
KUIPER-00037            
1 63749U 25088AB  26193.53091313  .00000555  00000+0  10179-3 0  9993
2 63749  51.9010 279.8993 0000362 107.1980 252.9022 14.79936152 66811
KUIPER-00038            
1 63750U 25088AC  26193.45288611  .00000438  00000+0  86383-4 0  9996
2 63750  51.9017 266.4106 0000420  80.7788 279.3222 14.79933696 65998
KUIPER-00039            
1 64500U 25134A   26193.76309375  .00001007  00000+0  16104-3 0  9993
2 64500  51.9032  40.0372 0000596  55.0861 305.0157 14.79936673 58591
KUIPER-00040            
1 64501U 25134B   26193.78608324  .00000649  00000+0  11417-3 0  9995
2 64501  51.9006  50.0112 0000775 110.3578 249.7467 14.79935625 58454
KUIPER-00041            
1 64502U 25134C   26193.00677625  .00000490  00000+0  93255-4 0  9996
2 64502  51.9001  55.8435 0000652 110.3363 249.7670 14.79931190 58300
KUIPER-00042            
1 64503U 25134D   26193.78875800 -.00000111  00000+0  14406-4 0  9999
2 64503  51.8993  47.3654 0000994 117.8785 242.2278 14.79933854 58499
KUIPER-00043            
1 64504U 25134E   26193.79684777  .00000206  00000+0  56071-4 0  9990
2 64504  51.9032  39.8269 0000781 113.4836 246.6209 14.79934318 58607
