{"fetched_at":"2026-07-13T07:47:52.862Z","source":"https://celestrak.org/NORAD/elements/gp.php?GROUP=kuiper&FORMAT=JSON","constellation":"kuiper","records":[{"OBJECT_NAME":"KUIPER-00027","OBJECT_ID":"2025-088S","EPOCH":"2026-07-12T06:04:16.892256","CLASSIFICATION_TYPE":"U","MEAN_MOTION":14.79915816,"ECCENTRICITY":0.0001231,"INCLINATION":51.9013,"RA_OF_ASC_NODE":264.7789,"ARG_OF_PERICENTER":119.3921,"MEAN_ANOMALY":240.7165,"EPHEMERIS_TYPE":0,"NORAD_CAT_ID":63740,"ELEMENT_SET_NO":999,"REV_AT_EPOCH":6606,"BSTAR":0.00075629,"MEAN_MOTION_DOT":0.00005547,"MEAN_MOTION_DDOT":0},{"OBJECT_NAME":"KUIPER-00028","OBJECT_ID":"2025-088T","EPOCH":"2026-07-12T13:25:45.651360","CLASSIFICATION_TYPE":"U","MEAN_MOTION":14.7992998,"ECCENTRICITY":0.0000437,"INCLINATION":51.8998,"RA_OF_ASC_NODE":260.8757,"ARG_OF_PERICENTER":99.5036,"MEAN_ANOMALY":260.5976,"EPHEMERIS_TYPE":0,"NORAD_CAT_ID":63741,"ELEMENT_SET_NO":999,"REV_AT_EPOCH":6655,"BSTAR":-0.00012128,"MEAN_MOTION_DOT":-0.00001145,"MEAN_MOTION_DDOT":0},{"OBJECT_NAME":"KUIPER-00029","OBJECT_ID":"2025-088U","EPOCH":"2026-07-12T16:05:44.719008","CLASSIFICATION_TYPE":"U","MEAN_MOTION":14.79925931,"ECCENTRICITY":0.0000235,"INCLINATION":51.9009,"RA_OF_ASC_NODE":259.0701,"ARG_OF_PERICENTER":316.98,"MEAN_ANOMALY":43.1144,"EPHEMERIS_TYPE":0,"NORAD_CAT_ID":63742,"ELEMENT_SET_NO":999,"REV_AT_EPOCH":6611,"BSTAR":0.00018868,"MEAN_MOTION_DOT":0.00001217,"MEAN_MOTION_DDOT":0},{"OBJECT_NAME":"KUIPER-00030","OBJECT_ID":"2025-088V","EPOCH":"2026-07-12T10:32:43.222560","CLASSIFICATION_TYPE":"U","MEAN_MOTION":14.79928315,"ECCENTRICITY":0.00004791,"INCLINATION":51.9016,"RA_OF_ASC_NODE":278.9176,"ARG_OF_PERICENTER":81.557,"MEAN_ANOMALY":278.5447,"EPHEMERIS_TYPE":0,"NORAD_CAT_ID":63743,"ELEMENT_SET_NO":999,"REV_AT_EPOCH":6610,"BSTAR":-0.000020563523,"MEAN_MOTION_DOT":-0.00000378,"MEAN_MOTION_DDOT":0},{"OBJECT_NAME":"KUIPER-00031","OBJECT_ID":"2025-088W","EPOCH":"2026-07-12T09:42:09.478368","CLASSIFICATION_TYPE":"U","MEAN_MOTION":14.76549599,"ECCENTRICITY":0.00018607,"INCLINATION":51.9003,"RA_OF_ASC_NODE":263.9158,"ARG_OF_PERICENTER":196.6331,"MEAN_ANOMALY":163.4569,"EPHEMERIS_TYPE":0,"NORAD_CAT_ID":63744,"ELEMENT_SET_NO":999,"REV_AT_EPOCH":6602,"BSTAR":0.00023356609,"MEAN_MOTION_DOT":0.00001429,"MEAN_MOTION_DDOT":0},{"OBJECT_NAME":"KUIPER-00032","OBJECT_ID":"2025-088X","EPOCH":"2026-07-12T20:25:06.605760","CLASSIFICATION_TYPE":"U","MEAN_MOTION":15.40886935,"ECCENTRICITY":0.0003073,"INCLINATION":51.8667,"RA_OF_ASC_NODE":137.287,"ARG_OF_PERICENTER":196.3386,"MEAN_ANOMALY":163.7504,"EPHEMERIS_TYPE":0,"NORAD_CAT_ID":63745,"ELEMENT_SET_NO":999,"REV_AT_EPOCH":6882,"BSTAR":0.0003064,"MEAN_MOTION_DOT":0.00012407,"MEAN_MOTION_DDOT":0},{"OBJECT_NAME":"KUIPER-00033","OBJECT_ID":"2025-088Y","EPOCH":"2026-07-12T19:04:15.106656","CLASSIFICATION_TYPE":"U","MEAN_MOTION":14.7994387,"ECCENTRICITY":0.0000385,"INCLINATION":51.9014,"RA_OF_ASC_NODE":292.3687,"ARG_OF_PERICENTER":105.6978,"MEAN_ANOMALY":254.4027,"EPHEMERIS_TYPE":0,"NORAD_CAT_ID":63746,"ELEMENT_SET_NO":999,"REV_AT_EPOCH":6614,"BSTAR":0.00028615,"MEAN_MOTION_DOT":0.00001962,"MEAN_MOTION_DDOT":0},{"OBJECT_NAME":"KUIPER-00034","OBJECT_ID":"2025-088Z","EPOCH":"2026-07-12T10:19:02.534880","CLASSIFICATION_TYPE":"U","MEAN_MOTION":14.79930845,"ECCENTRICITY":0.00006422,"INCLINATION":51.9008,"RA_OF_ASC_NODE":256.514,"ARG_OF_PERICENTER":65.9522,"MEAN_ANOMALY":294.1507,"EPHEMERIS_TYPE":0,"NORAD_CAT_ID":63747,"ELEMENT_SET_NO":999,"REV_AT_EPOCH":6629,"BSTAR":0.00013697945,"MEAN_MOTION_DOT":0.00000823,"MEAN_MOTION_DDOT":0},{"OBJECT_NAME":"KUIPER-00035","OBJECT_ID":"2025-088AA","EPOCH":"2026-07-12T12:54:42.463872","CLASSIFICATION_TYPE":"U","MEAN_MOTION":14.7992923,"ECCENTRICITY":0.00003699,"INCLINATION":51.901,"RA_OF_ASC_NODE":281.0121,"ARG_OF_PERICENTER":92.5504,"MEAN_ANOMALY":267.55,"EPHEMERIS_TYPE":0,"NORAD_CAT_ID":63748,"ELEMENT_SET_NO":999,"REV_AT_EPOCH":6601,"BSTAR":-0.000012158392,"MEAN_MOTION_DOT":-0.00000314,"MEAN_MOTION_DDOT":0},{"OBJECT_NAME":"KUIPER-00037","OBJECT_ID":"2025-088AB","EPOCH":"2026-07-12T12:44:30.894432","CLASSIFICATION_TYPE":"U","MEAN_MOTION":14.79936152,"ECCENTRICITY":0.0000362,"INCLINATION":51.901,"RA_OF_ASC_NODE":279.8993,"ARG_OF_PERICENTER":107.198,"MEAN_ANOMALY":252.9022,"EPHEMERIS_TYPE":0,"NORAD_CAT_ID":63749,"ELEMENT_SET_NO":999,"REV_AT_EPOCH":6681,"BSTAR":0.00010179475,"MEAN_MOTION_DOT":0.00000555,"MEAN_MOTION_DDOT":0},{"OBJECT_NAME":"KUIPER-00038","OBJECT_ID":"2025-088AC","EPOCH":"2026-07-12T10:52:09.359904","CLASSIFICATION_TYPE":"U","MEAN_MOTION":14.79933696,"ECCENTRICITY":0.00004204,"INCLINATION":51.9017,"RA_OF_ASC_NODE":266.4106,"ARG_OF_PERICENTER":80.7788,"MEAN_ANOMALY":279.3222,"EPHEMERIS_TYPE":0,"NORAD_CAT_ID":63750,"ELEMENT_SET_NO":999,"REV_AT_EPOCH":6599,"BSTAR":0.000086383162,"MEAN_MOTION_DOT":0.00000438,"MEAN_MOTION_DDOT":0},{"OBJECT_NAME":"KUIPER-00039","OBJECT_ID":"2025-134A","EPOCH":"2026-07-12T18:18:51.300000","CLASSIFICATION_TYPE":"U","MEAN_MOTION":14.79936673,"ECCENTRICITY":0.0000596,"INCLINATION":51.9032,"RA_OF_ASC_NODE":40.0372,"ARG_OF_PERICENTER":55.0861,"MEAN_ANOMALY":305.0157,"EPHEMERIS_TYPE":0,"NORAD_CAT_ID":64500,"ELEMENT_SET_NO":999,"REV_AT_EPOCH":5859,"BSTAR":0.00016104,"MEAN_MOTION_DOT":0.00001007,"MEAN_MOTION_DDOT":0},{"OBJECT_NAME":"KUIPER-00040","OBJECT_ID":"2025-134B","EPOCH":"2026-07-12T18:51:57.591936","CLASSIFICATION_TYPE":"U","MEAN_MOTION":14.79935625,"ECCENTRICITY":0.0000775,"INCLINATION":51.9006,"RA_OF_ASC_NODE":50.0112,"ARG_OF_PERICENTER":110.3578,"MEAN_ANOMALY":249.7467,"EPHEMERIS_TYPE":0,"NORAD_CAT_ID":64501,"ELEMENT_SET_NO":999,"REV_AT_EPOCH":5845,"BSTAR":0.00011417,"MEAN_MOTION_DOT":0.00000649,"MEAN_MOTION_DDOT":0},{"OBJECT_NAME":"KUIPER-00041","OBJECT_ID":"2025-134C","EPOCH":"2026-07-12T00:09:45.468000","CLASSIFICATION_TYPE":"U","MEAN_MOTION":14.7993119,"ECCENTRICITY":0.00006527,"INCLINATION":51.9001,"RA_OF_ASC_NODE":55.8435,"ARG_OF_PERICENTER":110.3363,"MEAN_ANOMALY":249.767,"EPHEMERIS_TYPE":0,"NORAD_CAT_ID":64502,"ELEMENT_SET_NO":999,"REV_AT_EPOCH":5830,"BSTAR":0.000093255319,"MEAN_MOTION_DOT":0.0000049,"MEAN_MOTION_DDOT":0},{"OBJECT_NAME":"KUIPER-00042","OBJECT_ID":"2025-134D","EPOCH":"2026-07-12T18:55:48.691200","CLASSIFICATION_TYPE":"U","MEAN_MOTION":14.79933854,"ECCENTRICITY":0.0000994,"INCLINATION":51.8993,"RA_OF_ASC_NODE":47.3654,"ARG_OF_PERICENTER":117.8785,"MEAN_ANOMALY":242.2278,"EPHEMERIS_TYPE":0,"NORAD_CAT_ID":64503,"ELEMENT_SET_NO":999,"REV_AT_EPOCH":5849,"BSTAR":0.000014406,"MEAN_MOTION_DOT":-0.00000111,"MEAN_MOTION_DDOT":0},{"OBJECT_NAME":"KUIPER-00043","OBJECT_ID":"2025-134E","EPOCH":"2026-07-12T19:07:27.647328","CLASSIFICATION_TYPE":"U","MEAN_MOTION":14.79934318,"ECCENTRICITY":0.0000781,"INCLINATION":51.9032,"RA_OF_ASC_NODE":39.8269,"ARG_OF_PERICENTER":113.4836,"MEAN_ANOMALY":246.6209,"EPHEMERIS_TYPE":0,"NORAD_CAT_ID":64504,"ELEMENT_SET_NO":999,"REV_AT_EPOCH":5860,"BSTAR":0.000056071,"MEAN_MOTION_DOT":0.00000206,"MEAN_MOTION_DDOT":0}]}
